SL-4 R/B                
1 39679U 14021B   25359.81610679  .00012798  00000+0  30319-3 0  9999
2 39679  51.6088 337.0306 0100790 193.4468 166.3826 15.36970160644901
ALOS-2                  
1 39766U 14029A   25359.93145845  .00000294  00000+0  46250-4 0  9995
2 39766  97.9219  94.5894 0001397  97.1377 262.9993 14.79467964625968
YAOGAN-29               
1 41038U 15069A   25359.97762191  .00000813  00000+0  10693-3 0  9996
2 41038  98.0207  23.1906 0000950 160.8024 199.3225 14.82898064544958
ASTRO-H (HITOMI)        
1 41337U 16012A   25359.65153052  .00003821  00000+0  22712-3 0  9999
2 41337  30.9992 114.1259 0009678 308.0578  51.9186 15.09434241541032
HXMT (HUIYAN)           
1 42758U 17034A   25359.63609071  .00006536  00000+0  33838-3 0  9994
2 42758  43.0144  68.0569 0031271 128.0568 232.3108 15.16384691471298
CZ-2C R/B               
1 43521U 18054D   25359.66131084  .00122356  00000+0  71643-3 0  9998
2 43521  35.1332  93.0963 0014620 272.2443  87.6617 15.76816383417095
SAOCOM 1A               
1 43641U 18076A   25359.97149110 -.00000054  00000+0 -27571-6 0  9994
2 43641  97.8844 184.2008 0001404  81.4161 278.7211 14.82146086390441
H-2A R/B                
1 43682U 18084L   25359.51267338  .00020598  00000+0  54954-3 0  9996
2 43682  98.8770 196.2439 0026557 281.6961  78.1300 15.37831605394369
SAOCOM 1B               
1 46265U 20059A   25359.93524167  .00000878  00000+0  11691-3 0  9993
2 46265  97.8839 183.2649 0001424  86.3045 273.8331 14.82151707287829
CSS (TIANHE)            
1 48274U 21035A   25359.84325156  .00016869  00000+0  20859-3 0  9990
2 48274  41.4681 297.1250 0008434 146.1754 213.9624 15.59690263266078
COSMOS 2550             
1 48865U 21056A   25359.50674471 -.00000141  00000+0  15435-5 0  9992
2 48865  67.1452 265.3171 0008334 270.5295  89.4905 15.33798558252087
CZ-2C R/B               
1 52794U 22058K   25359.32353288  .00025714  00000+0  45289-3 0  9991
2 52794  50.1920 339.3469 0044571 250.3626 109.2529 15.49111395198586
