CCSDS_OMM_VERS = 2.0
CREATION_DATE  = 
ORIGINATOR     = 

OBJECT_NAME    = SL-4 R/B
OBJECT_ID      = 2014-021B
CENTER_NAME    = EARTH
REF_FRAME      = TEME
TIME_SYSTEM    = UTC
MEAN_ELEMENT_THEORY = SGP/SGP4

EPOCH          = 2025-12-25T19:35:11.626656
MEAN_MOTION    = 15.36970160
ECCENTRICITY   = .01007903
INCLINATION    = 51.6088
RA_OF_ASC_NODE = 337.0306
ARG_OF_PERICENTER = 193.4468
MEAN_ANOMALY   = 166.3826

EPHEMERIS_TYPE = 0
CLASSIFICATION_TYPE = U
NORAD_CAT_ID   = 39679
ELEMENT_SET_NO = 999
REV_AT_EPOCH   = 64490
BSTAR          = .30319104E-3
MEAN_MOTION_DOT = .12798E-3
MEAN_MOTION_DDOT = 0

CCSDS_OMM_VERS = 2.0
CREATION_DATE  = 
ORIGINATOR     = 

OBJECT_NAME    = ALOS-2
OBJECT_ID      = 2014-029A
CENTER_NAME    = EARTH
REF_FRAME      = TEME
TIME_SYSTEM    = UTC
MEAN_ELEMENT_THEORY = SGP/SGP4

EPOCH          = 2025-12-25T22:21:18.010080
MEAN_MOTION    = 14.79467964
ECCENTRICITY   = .0001397
INCLINATION    = 97.9219
RA_OF_ASC_NODE = 94.5894
ARG_OF_PERICENTER = 97.1377
MEAN_ANOMALY   = 262.9993

EPHEMERIS_TYPE = 0
CLASSIFICATION_TYPE = U
NORAD_CAT_ID   = 39766
ELEMENT_SET_NO = 999
REV_AT_EPOCH   = 62596
BSTAR          = .46249964E-4
MEAN_MOTION_DOT = .294E-5
MEAN_MOTION_DDOT = 0

CCSDS_OMM_VERS = 2.0
CREATION_DATE  = 
ORIGINATOR     = 

OBJECT_NAME    = YAOGAN-29
OBJECT_ID      = 2015-069A
CENTER_NAME    = EARTH
REF_FRAME      = TEME
TIME_SYSTEM    = UTC
MEAN_ELEMENT_THEORY = SGP/SGP4

EPOCH          = 2025-12-25T23:27:46.533024
MEAN_MOTION    = 14.82898064
ECCENTRICITY   = .00009501
INCLINATION    = 98.0207
RA_OF_ASC_NODE = 23.1906
ARG_OF_PERICENTER = 160.8024
MEAN_ANOMALY   = 199.3225

EPHEMERIS_TYPE = 0
CLASSIFICATION_TYPE = U
NORAD_CAT_ID   = 41038
ELEMENT_SET_NO = 999
REV_AT_EPOCH   = 54495
BSTAR          = .10692642E-3
MEAN_MOTION_DOT = .813E-5
MEAN_MOTION_DDOT = 0

CCSDS_OMM_VERS = 2.0
CREATION_DATE  = 
ORIGINATOR     = 

OBJECT_NAME    = ASTRO-H (HITOMI)
OBJECT_ID      = 2016-012A
CENTER_NAME    = EARTH
REF_FRAME      = TEME
TIME_SYSTEM    = UTC
MEAN_ELEMENT_THEORY = SGP/SGP4

EPOCH          = 2025-12-25T15:38:12.236928
MEAN_MOTION    = 15.09434241
ECCENTRICITY   = .00096787
INCLINATION    = 30.9992
RA_OF_ASC_NODE = 114.1259
ARG_OF_PERICENTER = 308.0578
MEAN_ANOMALY   = 51.9186

EPHEMERIS_TYPE = 0
CLASSIFICATION_TYPE = U
NORAD_CAT_ID   = 41337
ELEMENT_SET_NO = 999
REV_AT_EPOCH   = 54103
BSTAR          = .22712019E-3
MEAN_MOTION_DOT = .3821E-4
MEAN_MOTION_DDOT = 0

CCSDS_OMM_VERS = 2.0
CREATION_DATE  = 
ORIGINATOR     = 

OBJECT_NAME    = HXMT (HUIYAN)
OBJECT_ID      = 2017-034A
CENTER_NAME    = EARTH
REF_FRAME      = TEME
TIME_SYSTEM    = UTC
MEAN_ELEMENT_THEORY = SGP/SGP4

EPOCH          = 2025-12-25T15:15:58.237344
MEAN_MOTION    = 15.16384691
ECCENTRICITY   = .0031271
INCLINATION    = 43.0144
RA_OF_ASC_NODE = 68.0569
ARG_OF_PERICENTER = 128.0568
MEAN_ANOMALY   = 232.3108

EPHEMERIS_TYPE = 0
CLASSIFICATION_TYPE = U
NORAD_CAT_ID   = 42758
ELEMENT_SET_NO = 999
REV_AT_EPOCH   = 47129
BSTAR          = .33838E-3
MEAN_MOTION_DOT = .6536E-4
MEAN_MOTION_DDOT = 0

CCSDS_OMM_VERS = 2.0
CREATION_DATE  = 
ORIGINATOR     = 

OBJECT_NAME    = CZ-2C R/B
OBJECT_ID      = 2018-054D
CENTER_NAME    = EARTH
REF_FRAME      = TEME
TIME_SYSTEM    = UTC
MEAN_ELEMENT_THEORY = SGP/SGP4

EPOCH          = 2025-12-25T15:52:17.256576
MEAN_MOTION    = 15.76816383
ECCENTRICITY   = .00146205
INCLINATION    = 35.1332
RA_OF_ASC_NODE = 93.0963
ARG_OF_PERICENTER = 272.2443
MEAN_ANOMALY   = 87.6617

EPHEMERIS_TYPE = 0
CLASSIFICATION_TYPE = U
NORAD_CAT_ID   = 43521
ELEMENT_SET_NO = 999
REV_AT_EPOCH   = 41709
BSTAR          = .71643324E-3
MEAN_MOTION_DOT = .122356E-2
MEAN_MOTION_DDOT = 0

CCSDS_OMM_VERS = 2.0
CREATION_DATE  = 
ORIGINATOR     = 

OBJECT_NAME    = SAOCOM 1A
OBJECT_ID      = 2018-076A
CENTER_NAME    = EARTH
REF_FRAME      = TEME
TIME_SYSTEM    = UTC
MEAN_ELEMENT_THEORY = SGP/SGP4

EPOCH          = 2025-12-25T23:18:56.831040
MEAN_MOTION    = 14.82146086
ECCENTRICITY   = .0001404
INCLINATION    = 97.8844
RA_OF_ASC_NODE = 184.2008
ARG_OF_PERICENTER = 81.4161
MEAN_ANOMALY   = 278.7211

EPHEMERIS_TYPE = 0
CLASSIFICATION_TYPE = U
NORAD_CAT_ID   = 43641
ELEMENT_SET_NO = 999
REV_AT_EPOCH   = 39044
BSTAR          = -.275712E-6
MEAN_MOTION_DOT = -.54E-6
MEAN_MOTION_DDOT = 0

CCSDS_OMM_VERS = 2.0
CREATION_DATE  = 
ORIGINATOR     = 

OBJECT_NAME    = H-2A R/B
OBJECT_ID      = 2018-084L
CENTER_NAME    = EARTH
REF_FRAME      = TEME
TIME_SYSTEM    = UTC
MEAN_ELEMENT_THEORY = SGP/SGP4

EPOCH          = 2025-12-25T12:18:14.980032
MEAN_MOTION    = 15.37831605
ECCENTRICITY   = .0026557
INCLINATION    = 98.8770
RA_OF_ASC_NODE = 196.2439
ARG_OF_PERICENTER = 281.6961
MEAN_ANOMALY   = 78.1300

EPHEMERIS_TYPE = 0
CLASSIFICATION_TYPE = U
NORAD_CAT_ID   = 43682
ELEMENT_SET_NO = 999
REV_AT_EPOCH   = 39436
BSTAR          = .54954E-3
MEAN_MOTION_DOT = .20598E-3
MEAN_MOTION_DDOT = 0

CCSDS_OMM_VERS = 2.0
CREATION_DATE  = 
ORIGINATOR     = 

OBJECT_NAME    = SAOCOM 1B
OBJECT_ID      = 2020-059A
CENTER_NAME    = EARTH
REF_FRAME      = TEME
TIME_SYSTEM    = UTC
MEAN_ELEMENT_THEORY = SGP/SGP4

EPOCH          = 2025-12-25T22:26:44.880288
MEAN_MOTION    = 14.82151707
ECCENTRICITY   = .00014245
INCLINATION    = 97.8839
RA_OF_ASC_NODE = 183.2649
ARG_OF_PERICENTER = 86.3045
MEAN_ANOMALY   = 273.8331

EPHEMERIS_TYPE = 0
CLASSIFICATION_TYPE = U
NORAD_CAT_ID   = 46265
ELEMENT_SET_NO = 999
REV_AT_EPOCH   = 28782
BSTAR          = .11690525E-3
MEAN_MOTION_DOT = .878E-5
MEAN_MOTION_DDOT = 0

CCSDS_OMM_VERS = 2.0
CREATION_DATE  = 
ORIGINATOR     = 

OBJECT_NAME    = CSS (TIANHE)
OBJECT_ID      = 2021-035A
CENTER_NAME    = EARTH
REF_FRAME      = TEME
TIME_SYSTEM    = UTC
MEAN_ELEMENT_THEORY = SGP/SGP4

EPOCH          = 2025-12-25T20:14:16.934784
MEAN_MOTION    = 15.59690263
ECCENTRICITY   = .00084341
INCLINATION    = 41.4681
RA_OF_ASC_NODE = 297.1250
ARG_OF_PERICENTER = 146.1754
MEAN_ANOMALY   = 213.9624

EPHEMERIS_TYPE = 0
CLASSIFICATION_TYPE = U
NORAD_CAT_ID   = 48274
ELEMENT_SET_NO = 999
REV_AT_EPOCH   = 26607
BSTAR          = .20858961E-3
MEAN_MOTION_DOT = .16869E-3
MEAN_MOTION_DDOT = 0

CCSDS_OMM_VERS = 2.0
CREATION_DATE  = 
ORIGINATOR     = 

OBJECT_NAME    = COSMOS 2550
OBJECT_ID      = 2021-056A
CENTER_NAME    = EARTH
REF_FRAME      = TEME
TIME_SYSTEM    = UTC
MEAN_ELEMENT_THEORY = SGP/SGP4

EPOCH          = 2025-12-25T12:09:42.742944
MEAN_MOTION    = 15.33798558
ECCENTRICITY   = .0008334
INCLINATION    = 67.1452
RA_OF_ASC_NODE = 265.3171
ARG_OF_PERICENTER = 270.5295
MEAN_ANOMALY   = 89.4905

EPHEMERIS_TYPE = 0
CLASSIFICATION_TYPE = U
NORAD_CAT_ID   = 48865
ELEMENT_SET_NO = 999
REV_AT_EPOCH   = 25208
BSTAR          = .15435E-5
MEAN_MOTION_DOT = -.141E-5
MEAN_MOTION_DDOT = 0

CCSDS_OMM_VERS = 2.0
CREATION_DATE  = 
ORIGINATOR     = 

OBJECT_NAME    = CZ-2C R/B
OBJECT_ID      = 2022-058K
CENTER_NAME    = EARTH
REF_FRAME      = TEME
TIME_SYSTEM    = UTC
MEAN_ELEMENT_THEORY = SGP/SGP4

EPOCH          = 2025-12-25T07:45:53.240832
MEAN_MOTION    = 15.49111395
ECCENTRICITY   = .0044571
INCLINATION    = 50.1920
RA_OF_ASC_NODE = 339.3469
ARG_OF_PERICENTER = 250.3626
MEAN_ANOMALY   = 109.2529

EPHEMERIS_TYPE = 0
CLASSIFICATION_TYPE = U
NORAD_CAT_ID   = 52794
ELEMENT_SET_NO = 999
REV_AT_EPOCH   = 19858
BSTAR          = .45289E-3
MEAN_MOTION_DOT = .25714E-3
MEAN_MOTION_DDOT = 0

